{
    "links": {
        "self": "http://www.neowsapp.com/rest/v1/neo/3763598?api_key=iIulBulltgU6a56xZRHN4H3l9WmuAYTsLGpBGhQ2"
    },
    "id": "3763598",
    "neo_reference_id": "3763598",
    "name": "(2016 VO4)",
    "designation": "2016 VO4",
    "nasa_jpl_url": "http://ssd.jpl.nasa.gov/sbdb.cgi?sstr=3763598",
    "absolute_magnitude_h": 24.8,
    "estimated_diameter": {
        "kilometers": {
            "estimated_diameter_min": 0.0291443905,
            "estimated_diameter_max": 0.0651688382
        },
        "meters": {
            "estimated_diameter_min": 29.1443904535,
            "estimated_diameter_max": 65.1688382168
        },
        "miles": {
            "estimated_diameter_min": 0.018109479,
            "estimated_diameter_max": 0.0404940262
        },
        "feet": {
            "estimated_diameter_min": 95.6180819754,
            "estimated_diameter_max": 213.8085311752
        }
    },
    "is_potentially_hazardous_asteroid": false,
    "close_approach_data": [
        {
            "close_approach_date": "2016-11-02",
            "close_approach_date_full": "2016-Nov-02 08:50",
            "epoch_date_close_approach": 1478076600000,
            "relative_velocity": {
                "kilometers_per_second": "17.9529035027",
                "kilometers_per_hour": "64630.4526095558",
                "miles_per_hour": "40158.8498450876"
            },
            "miss_distance": {
                "astronomical": "0.0438041536",
                "lunar": "17.0398157504",
                "kilometers": "6553008.075712832",
                "miles": "4071850.4040358016"
            },
            "orbiting_body": "Earth"
        },
        {
            "close_approach_date": "2083-07-21",
            "close_approach_date_full": "2083-Jul-21 02:00",
            "epoch_date_close_approach": 3583360800000,
            "relative_velocity": {
                "kilometers_per_second": "17.5971614034",
                "kilometers_per_hour": "63349.7810523761",
                "miles_per_hour": "39363.09034335"
            },
            "miss_distance": {
                "astronomical": "0.3890908828",
                "lunar": "151.3563534092",
                "kilometers": "58207167.303299636",
                "miles": "36168256.6179255368"
            },
            "orbiting_body": "Earth"
        }
    ],
    "orbital_data": {
        "orbit_id": "3",
        "orbit_determination_date": "2017-04-06 08:22:15",
        "first_observation_date": "2016-11-09",
        "last_observation_date": "2016-11-21",
        "data_arc_in_days": 12,
        "observations_used": 28,
        "orbit_uncertainty": "8",
        "minimum_orbit_intersection": ".0438103",
        "jupiter_tisserand_invariant": "4.376",
        "epoch_osculation": "2457702.5",
        "eccentricity": ".5757249394418994",
        "semi_major_axis": "1.483027258202935",
        "inclination": "6.574184308648018",
        "ascending_node_longitude": "242.3063990508272",
        "orbital_period": "659.6630023980578",
        "perihelion_distance": ".629211479783364",
        "perihelion_argument": "66.96110026720613",
        "aphelion_distance": "2.336843036622505",
        "perihelion_time": "2457643.031097981275",
        "mean_anomaly": "32.45415408915471",
        "mean_motion": ".5457331981501164",
        "equinox": "J2000",
        "orbit_class": {
            "orbit_class_type": "APO",
            "orbit_class_description": "Near-Earth asteroid orbits which cross the Earth’s orbit similar to that of 1862 Apollo",
            "orbit_class_range": "a (semi-major axis) > 1.0 AU; q (perihelion) < 1.017 AU"
        }
    },
    "is_sentry_object": false
}